KUIPER-00008            
1 63724U 25088A   26189.20927344 -.00000812  00000+0 -77505-4 0  9992
2 63724  51.8996 275.0704 0000180 114.3417 245.7564 14.79919402 65894
KUIPER-00009            
1 63725U 25088B   26188.34627370  .00000460  00000+0  89336-4 0  9995
2 63725  51.9024 296.5184 0000707  78.8651 281.2390 14.79914977 65510
KUIPER-00010            
1 63726U 25088C   26189.51856561 -.00000281  00000+0 -78636-5 0  9997
2 63726  51.9023 268.8065 0000593  99.2715 260.8315 14.79919427 65628
KUIPER-00011            
1 63727U 25088D   26189.54424690  .00000803  00000+0  13439-3 0  9991
2 63727  51.9007 276.2429 0000548  99.4073 260.6951 14.79924203 65652
KUIPER-00012            
1 63728U 25088E   26189.45912497  .00001127  00000+0  17693-3 0  9995
2 63728  51.9006 261.5525 0000706 107.0274 253.0766 14.79918643 65809
KUIPER-00013            
1 63729U 25088F   26189.59289299  .00000189  00000+0  53799-4 0  9993
2 63729  51.9017 293.4797 0000554  86.9513 273.1512 14.79912757 65474
KUIPER-00014            
1 63730U 25088G   26189.76171183  .00000814  00000+0  13586-3 0  9990
2 63730  51.9014 292.6758 0000704 110.8345 249.2693 14.79924105 65315
KUIPER-00015            
1 63731U 25088H   26189.31199282 -.00000680  00000+0 -60290-4 0  9990
2 63731  51.9008 304.7289 0000531  98.2345 261.8677 14.79921481 65563
KUIPER-00016            
1 63732U 25088J   26189.55641120  .00001250  00000+0  19300-3 0  9997
2 63732  51.9116 296.1065 0001215 331.8495  28.2401 14.79916441 65247
KUIPER-00018            
1 63733U 25088K   26189.53345073  .00000700  00000+0  12086-3 0  9997
2 63733  51.9015 286.2287 0000840 109.7554 250.3499 14.79925269 65381
KUIPER-00019            
1 63734U 25088L   26189.56011314  .00001740  00000+0  25717-3 0  9999
2 63734  51.9031 284.8721 0000683 117.7158 242.3874 14.79927198 65405
KUIPER-00020            
1 63735U 25088M   26189.66570031  .00007359  00000+0  99167-3 0  9999
2 63735  51.9133 288.1578 0001189 308.4514  51.6342 14.80001216 65578
KUIPER-00021            
1 63736U 25088N   26189.63205142  .00000941  00000+0  15251-3 0  9997
2 63736  51.9019 288.2549 0000616  91.7904 268.3129 14.79916880 65402
KUIPER-00023            
1 63737U 25088P   26189.59551596  .00002169  00000+0  31333-3 0  9993
2 63737  51.9016 290.9040 0000545 110.8695 249.2326 14.79950588 65665
KUIPER-00024            
1 63738U 25088Q   26189.54155038  .00000696  00000+0  12031-3 0  9997
2 63738  51.9038 278.7414 0000677 101.5853 258.5185 14.79918973 65958
KUIPER-00025            
1 63739U 25088R   26189.29709606 -.00000302  00000+0 -10579-4 0  9998
2 63739  51.9043 287.3041 0000511  76.0965 284.0054 14.79911280 65676
