{"fetched_at":"2026-07-09T18:16:40.685Z","source":"https://celestrak.org/NORAD/elements/gp.php?GROUP=kuiper&FORMAT=JSON","constellation":"kuiper","records":[{"OBJECT_NAME":"KUIPER-00008","OBJECT_ID":"2025-088A","EPOCH":"2026-07-08T05:01:21.225216","CLASSIFICATION_TYPE":"U","MEAN_MOTION":14.79919402,"ECCENTRICITY":0.00001805,"INCLINATION":51.8996,"RA_OF_ASC_NODE":275.0704,"ARG_OF_PERICENTER":114.3417,"MEAN_ANOMALY":245.7564,"EPHEMERIS_TYPE":0,"NORAD_CAT_ID":63724,"ELEMENT_SET_NO":999,"REV_AT_EPOCH":6589,"BSTAR":-0.000077505375,"MEAN_MOTION_DOT":-0.00000812,"MEAN_MOTION_DDOT":0},{"OBJECT_NAME":"KUIPER-00009","OBJECT_ID":"2025-088B","EPOCH":"2026-07-07T08:18:38.047680","CLASSIFICATION_TYPE":"U","MEAN_MOTION":14.79914977,"ECCENTRICITY":0.0000707,"INCLINATION":51.9024,"RA_OF_ASC_NODE":296.5184,"ARG_OF_PERICENTER":78.8651,"MEAN_ANOMALY":281.239,"EPHEMERIS_TYPE":0,"NORAD_CAT_ID":63725,"ELEMENT_SET_NO":999,"REV_AT_EPOCH":6551,"BSTAR":0.000089335854,"MEAN_MOTION_DOT":0.0000046,"MEAN_MOTION_DDOT":0},{"OBJECT_NAME":"KUIPER-00010","OBJECT_ID":"2025-088C","EPOCH":"2026-07-08T12:26:44.068704","CLASSIFICATION_TYPE":"U","MEAN_MOTION":14.79919427,"ECCENTRICITY":0.00005938,"INCLINATION":51.9023,"RA_OF_ASC_NODE":268.8065,"ARG_OF_PERICENTER":99.2715,"MEAN_ANOMALY":260.8315,"EPHEMERIS_TYPE":0,"NORAD_CAT_ID":63726,"ELEMENT_SET_NO":999,"REV_AT_EPOCH":6562,"BSTAR":-0.000007863571,"MEAN_MOTION_DOT":-0.00000281,"MEAN_MOTION_DDOT":0},{"OBJECT_NAME":"KUIPER-00011","OBJECT_ID":"2025-088D","EPOCH":"2026-07-08T13:03:42.932160","CLASSIFICATION_TYPE":"U","MEAN_MOTION":14.79924203,"ECCENTRICITY":0.0000548,"INCLINATION":51.9007,"RA_OF_ASC_NODE":276.2429,"ARG_OF_PERICENTER":99.4073,"MEAN_ANOMALY":260.6951,"EPHEMERIS_TYPE":0,"NORAD_CAT_ID":63727,"ELEMENT_SET_NO":999,"REV_AT_EPOCH":6565,"BSTAR":0.00013438585,"MEAN_MOTION_DOT":0.00000803,"MEAN_MOTION_DDOT":0},{"OBJECT_NAME":"KUIPER-00012","OBJECT_ID":"2025-088E","EPOCH":"2026-07-08T11:01:08.397408","CLASSIFICATION_TYPE":"U","MEAN_MOTION":14.79918643,"ECCENTRICITY":0.00007069,"INCLINATION":51.9006,"RA_OF_ASC_NODE":261.5525,"ARG_OF_PERICENTER":107.0274,"MEAN_ANOMALY":253.0766,"EPHEMERIS_TYPE":0,"NORAD_CAT_ID":63728,"ELEMENT_SET_NO":999,"REV_AT_EPOCH":6580,"BSTAR":0.00017693417,"MEAN_MOTION_DOT":0.00001127,"MEAN_MOTION_DDOT":0},{"OBJECT_NAME":"KUIPER-00013","OBJECT_ID":"2025-088F","EPOCH":"2026-07-08T14:13:45.954336","CLASSIFICATION_TYPE":"U","MEAN_MOTION":14.79912757,"ECCENTRICITY":0.00005546,"INCLINATION":51.9017,"RA_OF_ASC_NODE":293.4797,"ARG_OF_PERICENTER":86.9513,"MEAN_ANOMALY":273.1512,"EPHEMERIS_TYPE":0,"NORAD_CAT_ID":63729,"ELEMENT_SET_NO":999,"REV_AT_EPOCH":6547,"BSTAR":0.000053799056,"MEAN_MOTION_DOT":0.00000189,"MEAN_MOTION_DDOT":0},{"OBJECT_NAME":"KUIPER-00014","OBJECT_ID":"2025-088G","EPOCH":"2026-07-08T18:16:51.902112","CLASSIFICATION_TYPE":"U","MEAN_MOTION":14.79924105,"ECCENTRICITY":0.00007041,"INCLINATION":51.9014,"RA_OF_ASC_NODE":292.6758,"ARG_OF_PERICENTER":110.8345,"MEAN_ANOMALY":249.2693,"EPHEMERIS_TYPE":0,"NORAD_CAT_ID":63730,"ELEMENT_SET_NO":999,"REV_AT_EPOCH":6531,"BSTAR":0.00013586082,"MEAN_MOTION_DOT":0.00000814,"MEAN_MOTION_DDOT":0},{"OBJECT_NAME":"KUIPER-00015","OBJECT_ID":"2025-088H","EPOCH":"2026-07-08T07:29:16.179648","CLASSIFICATION_TYPE":"U","MEAN_MOTION":14.79921481,"ECCENTRICITY":0.00005311,"INCLINATION":51.9008,"RA_OF_ASC_NODE":304.7289,"ARG_OF_PERICENTER":98.2345,"MEAN_ANOMALY":261.8677,"EPHEMERIS_TYPE":0,"NORAD_CAT_ID":63731,"ELEMENT_SET_NO":999,"REV_AT_EPOCH":6556,"BSTAR":-0.000060290298,"MEAN_MOTION_DOT":-0.0000068,"MEAN_MOTION_DDOT":0},{"OBJECT_NAME":"KUIPER-00016","OBJECT_ID":"2025-088J","EPOCH":"2026-07-08T13:21:13.927680","CLASSIFICATION_TYPE":"U","MEAN_MOTION":14.79916441,"ECCENTRICITY":0.00012155,"INCLINATION":51.9116,"RA_OF_ASC_NODE":296.1065,"ARG_OF_PERICENTER":331.8495,"MEAN_ANOMALY":28.2401,"EPHEMERIS_TYPE":0,"NORAD_CAT_ID":63732,"ELEMENT_SET_NO":999,"REV_AT_EPOCH":6524,"BSTAR":0.00019299928,"MEAN_MOTION_DOT":0.0000125,"MEAN_MOTION_DDOT":0},{"OBJECT_NAME":"KUIPER-00018","OBJECT_ID":"2025-088K","EPOCH":"2026-07-08T12:48:10.143072","CLASSIFICATION_TYPE":"U","MEAN_MOTION":14.79925269,"ECCENTRICITY":0.00008403,"INCLINATION":51.9015,"RA_OF_ASC_NODE":286.2287,"ARG_OF_PERICENTER":109.7554,"MEAN_ANOMALY":250.3499,"EPHEMERIS_TYPE":0,"NORAD_CAT_ID":63733,"ELEMENT_SET_NO":999,"REV_AT_EPOCH":6538,"BSTAR":0.00012085796,"MEAN_MOTION_DOT":0.000007,"MEAN_MOTION_DDOT":0},{"OBJECT_NAME":"KUIPER-00019","OBJECT_ID":"2025-088L","EPOCH":"2026-07-08T13:26:33.775296","CLASSIFICATION_TYPE":"U","MEAN_MOTION":14.79927198,"ECCENTRICITY":0.00006834,"INCLINATION":51.9031,"RA_OF_ASC_NODE":284.8721,"ARG_OF_PERICENTER":117.7158,"MEAN_ANOMALY":242.3874,"EPHEMERIS_TYPE":0,"NORAD_CAT_ID":63734,"ELEMENT_SET_NO":999,"REV_AT_EPOCH":6540,"BSTAR":0.00025717477,"MEAN_MOTION_DOT":0.0000174,"MEAN_MOTION_DDOT":0},{"OBJECT_NAME":"KUIPER-00020","OBJECT_ID":"2025-088M","EPOCH":"2026-07-08T15:58:36.506784","CLASSIFICATION_TYPE":"U","MEAN_MOTION":14.80001216,"ECCENTRICITY":0.00011896,"INCLINATION":51.9133,"RA_OF_ASC_NODE":288.1578,"ARG_OF_PERICENTER":308.4514,"MEAN_ANOMALY":51.6342,"EPHEMERIS_TYPE":0,"NORAD_CAT_ID":63735,"ELEMENT_SET_NO":999,"REV_AT_EPOCH":6557,"BSTAR":0.00099167401,"MEAN_MOTION_DOT":0.00007359,"MEAN_MOTION_DDOT":0},{"OBJECT_NAME":"KUIPER-00021","OBJECT_ID":"2025-088N","EPOCH":"2026-07-08T15:10:09.242688","CLASSIFICATION_TYPE":"U","MEAN_MOTION":14.7991688,"ECCENTRICITY":0.0000616,"INCLINATION":51.9019,"RA_OF_ASC_NODE":288.2549,"ARG_OF_PERICENTER":91.7904,"MEAN_ANOMALY":268.3129,"EPHEMERIS_TYPE":0,"NORAD_CAT_ID":63736,"ELEMENT_SET_NO":999,"REV_AT_EPOCH":6540,"BSTAR":0.00015251361,"MEAN_MOTION_DOT":0.00000941,"MEAN_MOTION_DDOT":0},{"OBJECT_NAME":"KUIPER-00023","OBJECT_ID":"2025-088P","EPOCH":"2026-07-08T14:17:32.578944","CLASSIFICATION_TYPE":"U","MEAN_MOTION":14.79950588,"ECCENTRICITY":0.0000545,"INCLINATION":51.9016,"RA_OF_ASC_NODE":290.904,"ARG_OF_PERICENTER":110.8695,"MEAN_ANOMALY":249.2326,"EPHEMERIS_TYPE":0,"NORAD_CAT_ID":63737,"ELEMENT_SET_NO":999,"REV_AT_EPOCH":6566,"BSTAR":0.00031333317,"MEAN_MOTION_DOT":0.00002169,"MEAN_MOTION_DDOT":0},{"OBJECT_NAME":"KUIPER-00024","OBJECT_ID":"2025-088Q","EPOCH":"2026-07-08T12:59:49.952832","CLASSIFICATION_TYPE":"U","MEAN_MOTION":14.79918973,"ECCENTRICITY":0.00006778,"INCLINATION":51.9038,"RA_OF_ASC_NODE":278.7414,"ARG_OF_PERICENTER":101.5853,"MEAN_ANOMALY":258.5185,"EPHEMERIS_TYPE":0,"NORAD_CAT_ID":63738,"ELEMENT_SET_NO":999,"REV_AT_EPOCH":6595,"BSTAR":0.00012030648,"MEAN_MOTION_DOT":0.00000696,"MEAN_MOTION_DDOT":0},{"OBJECT_NAME":"KUIPER-00025","OBJECT_ID":"2025-088R","EPOCH":"2026-07-08T07:07:49.099584","CLASSIFICATION_TYPE":"U","MEAN_MOTION":14.7991128,"ECCENTRICITY":0.00005112,"INCLINATION":51.9043,"RA_OF_ASC_NODE":287.3041,"ARG_OF_PERICENTER":76.0965,"MEAN_ANOMALY":284.0054,"EPHEMERIS_TYPE":0,"NORAD_CAT_ID":63739,"ELEMENT_SET_NO":999,"REV_AT_EPOCH":6567,"BSTAR":-0.000010579008,"MEAN_MOTION_DOT":-0.00000302,"MEAN_MOTION_DDOT":0}]}
